[{"OBJECT_NAME":"STARLINK-2530","OBJECT_ID":"2021-036AD","EPOCH":"2026-03-09T16:00:03.000096","MEAN_MOTION":15.30175273,"ECCENTRICITY":0.0001325,"INCLINATION":53.1604,"RA_OF_ASC_NODE":88.5428,"ARG_OF_PERICENTER":82.4327,"MEAN_ANOMALY":322.2393,"EPHEMERIS_TYPE":0,"CLASSIFICATION_TYPE":"U","NORAD_CAT_ID":48303,"ELEMENT_SET_NO":999,"REV_AT_EPOCH":580,"BSTAR":-0.00042876,"MEAN_MOTION_DOT":-0.00013026,"MEAN_MOTION_DDOT":0},{"OBJECT_NAME":"CZ-6A DEB","OBJECT_ID":"2024-140AAN","EPOCH":"2026-03-09T15:08:07.195776","MEAN_MOTION":15.20547394,"ECCENTRICITY":0.0064261,"INCLINATION":89.3669,"RA_OF_ASC_NODE":306.3092,"ARG_OF_PERICENTER":93.6352,"MEAN_ANOMALY":267.2246,"EPHEMERIS_TYPE":0,"CLASSIFICATION_TYPE":"U","NORAD_CAT_ID":61480,"ELEMENT_SET_NO":999,"REV_AT_EPOCH":8198,"BSTAR":0.0033609,"MEAN_MOTION_DOT":0.00078405,"MEAN_MOTION_DDOT":0}]
